QIANFAN-103             
1 66045U 25233N   26062.93941666  .00000045  00000+0  50317-4 0  9994
2 66045  88.9933  53.8318 0001881  91.4748 268.6618 13.51006123 18976
QIANFAN-104             
1 66046U 25233P   26062.94332124  .00000038  00000+0  39910-4 0  9997
2 66046  88.9938  53.7288 0002083  86.0884 274.0505 13.51010157 19028
QIANFAN-105             
1 66047U 25233Q   26062.95145354  .00000036  00000+0  37220-4 0  9996
2 66047  88.9951  53.5570 0002010  92.5721 267.5661 13.50981441 19132
QIANFAN-106             
1 66048U 25233R   26062.94759737  .00000028  00000+0  24370-4 0  9995
2 66048  88.9920  53.8034 0002381  86.7483 273.3941 13.51005102 18988
QIANFAN-107             
1 66049U 25233S   26062.95585416  .00000038  00000+0  40517-4 0  9990
2 66049  88.9935  53.8182 0001915  90.5753 269.5618 13.51003144 18986
QIANFAN-108             
1 66050U 25233T   26062.95996047  .00000041  00000+0  44689-4 0  9996
2 66050  88.9928  53.8130 0002335  86.4154 273.7264 13.51004655 18981
