[{"OBJECT_NAME":"QIANFAN-103","OBJECT_ID":"2025-233N","EPOCH":"2026-03-03T22:32:45.599424","MEAN_MOTION":13.51006123,"ECCENTRICITY":0.00018816,"INCLINATION":88.9933,"RA_OF_ASC_NODE":53.8318,"ARG_OF_PERICENTER":91.4748,"MEAN_ANOMALY":268.6618,"EPHEMERIS_TYPE":0,"CLASSIFICATION_TYPE":"U","NORAD_CAT_ID":66045,"ELEMENT_SET_NO":999,"REV_AT_EPOCH":1897,"BSTAR":5.0316544e-5,"MEAN_MOTION_DOT":4.5e-7,"MEAN_MOTION_DDOT":0},{"OBJECT_NAME":"QIANFAN-104","OBJECT_ID":"2025-233P","EPOCH":"2026-03-03T22:38:22.955136","MEAN_MOTION":13.51010157,"ECCENTRICITY":0.00020838,"INCLINATION":88.9938,"RA_OF_ASC_NODE":53.7288,"ARG_OF_PERICENTER":86.0884,"MEAN_ANOMALY":274.0505,"EPHEMERIS_TYPE":0,"CLASSIFICATION_TYPE":"U","NORAD_CAT_ID":66046,"ELEMENT_SET_NO":999,"REV_AT_EPOCH":1902,"BSTAR":3.9909762e-5,"MEAN_MOTION_DOT":3.8e-7,"MEAN_MOTION_DDOT":0},{"OBJECT_NAME":"QIANFAN-105","OBJECT_ID":"2025-233Q","EPOCH":"2026-03-03T22:50:05.585856","MEAN_MOTION":13.50981441,"ECCENTRICITY":0.00020105,"INCLINATION":88.9951,"RA_OF_ASC_NODE":53.557,"ARG_OF_PERICENTER":92.5721,"MEAN_ANOMALY":267.5661,"EPHEMERIS_TYPE":0,"CLASSIFICATION_TYPE":"U","NORAD_CAT_ID":66047,"ELEMENT_SET_NO":999,"REV_AT_EPOCH":1913,"BSTAR":3.7219506e-5,"MEAN_MOTION_DOT":3.6e-7,"MEAN_MOTION_DDOT":0},{"OBJECT_NAME":"QIANFAN-106","OBJECT_ID":"2025-233R","EPOCH":"2026-03-03T22:44:32.412768","MEAN_MOTION":13.51005102,"ECCENTRICITY":0.00023817,"INCLINATION":88.992,"RA_OF_ASC_NODE":53.8034,"ARG_OF_PERICENTER":86.7483,"MEAN_ANOMALY":273.3941,"EPHEMERIS_TYPE":0,"CLASSIFICATION_TYPE":"U","NORAD_CAT_ID":66048,"ELEMENT_SET_NO":999,"REV_AT_EPOCH":1898,"BSTAR":2.4369756e-5,"MEAN_MOTION_DOT":2.8e-7,"MEAN_MOTION_DDOT":0},{"OBJECT_NAME":"QIANFAN-107","OBJECT_ID":"2025-233S","EPOCH":"2026-03-03T22:56:25.799424","MEAN_MOTION":13.51003144,"ECCENTRICITY":0.0001915,"INCLINATION":88.9935,"RA_OF_ASC_NODE":53.8182,"ARG_OF_PERICENTER":90.5753,"MEAN_ANOMALY":269.5618,"EPHEMERIS_TYPE":0,"CLASSIFICATION_TYPE":"U","NORAD_CAT_ID":66049,"ELEMENT_SET_NO":999,"REV_AT_EPOCH":1898,"BSTAR":4.0517173e-5,"MEAN_MOTION_DOT":3.8e-7,"MEAN_MOTION_DDOT":0},{"OBJECT_NAME":"QIANFAN-108","OBJECT_ID":"2025-233T","EPOCH":"2026-03-03T23:02:20.584608","MEAN_MOTION":13.51004655,"ECCENTRICITY":0.00023354,"INCLINATION":88.9928,"RA_OF_ASC_NODE":53.813,"ARG_OF_PERICENTER":86.4154,"MEAN_ANOMALY":273.7264,"EPHEMERIS_TYPE":0,"CLASSIFICATION_TYPE":"U","NORAD_CAT_ID":66050,"ELEMENT_SET_NO":999,"REV_AT_EPOCH":1898,"BSTAR":4.4689484e-5,"MEAN_MOTION_DOT":4.1e-7,"MEAN_MOTION_DDOT":0}]
